IRIDIUM 144             
1 43249U 18030A   25159.06203178  .00000163  00000+0  51100-4 0  9993
2 43249  86.3961  86.8199 0002345  82.5939 277.5523 14.34217657376533
IRIDIUM 149             
1 43250U 18030B   25159.06836909  .00000121  00000+0  36043-4 0  9992
2 43250  86.3957  86.7883 0002378  82.0782 278.0684 14.34216171376530
IRIDIUM 157             
1 43251U 18030C   25159.15716960 -.00000038  00000+0 -20640-4 0  9992
2 43251  86.3959  86.7962 0001878  86.7023 273.4388 14.34216770376528
IRIDIUM 140             
1 43252U 18030D   25158.89712459 -.00000046  00000+0 -23648-4 0  9992
2 43252  86.3957  86.9186 0002322  82.7587 277.3873 14.34216792376541
IRIDIUM 145             
1 43253U 18030E   25159.16351526  .00000254  00000+0  83528-4 0  9990
2 43253  86.3960  86.7800 0002490  76.0109 284.1363 14.34216568376517
IRIDIUM 146             
1 43254U 18030F   25158.86541899  .00000236  00000+0  77179-4 0  9996
2 43254  86.3959  86.9183 0002505  76.2308 283.9167 14.34216741376480
IRIDIUM 148             
1 43255U 18030G   25159.04299905  .00000286  00000+0  94932-4 0  9997
2 43255  86.3964  86.8814 0002158  80.0941 280.0499 14.34216686376559
IRIDIUM 142             
1 43256U 18030H   25159.15082794  .00000069  00000+0  17715-4 0  9999
2 43256  86.3959  86.7389 0002470  72.6838 287.4628 14.34216994376523
